{"spkid": "20412983", "covariance": {"epoch": "2458072.5", "elements": [{"sigma": 3.38454962811133e-08, "name": "e", "units": null, "value": ".2903776044161784", "title": "eccentricity", "label": "e"}, {"label": "q", "title": "perihelion distance", "value": "1.023886820268269", "units": "au", "name": "q", "sigma": 4.61822568650793e-08}, {"sigma": 1.92719616185045e-05, "name": "tp", "title": "time of perihelion passage", "value": "2458342.168214462134", "units": "TDB", "label": "tp"}, {"label": "node", "sigma": 3.18187686826105e-05, "name": "om", "units": "deg", "value": "333.6156012857077", "title": "longitude of the ascending node"}, {"label": "peri", "title": "argument of perihelion", "value": "162.6814442994808", "units": "deg", "name": "w", "sigma": 3.39493612011475e-05}, {"name": "i", "sigma": 3.16375554142066e-06, "title": "inclination", "value": "5.813331678787703", "units": "deg", "label": "i"}], "data": [["1.145517618514855E-15", "-1.560618413508335E-15", "-3.241776126724585E-13", "-1.986694206201125E-13", "5.595901084431032E-14", "-3.95532223030862E-14", "3.945650983471889E-22"], ["-1.560618413508335E-15", "2.132800849152163E-15", "4.099807065816227E-13", "2.688840145911403E-13", "-9.305441641182118E-14", "5.212919683307374E-14", "-5.14450132282076E-22"], ["-3.241776126724585E-13", "4.099807065816227E-13", "3.71408504625112E-10", "3.408145716189975E-12", "2.214352431348297E-10", "1.80771928198285E-11", "-2.23670615170961E-19"], ["-1.986694206201125E-13", "2.688840145911403E-13", "3.408145716189975E-12", "1.012434040477474E-9", "-1.007729013123672E-9", "6.219660363983506E-12", "-6.547892270473776E-20"], ["5.595901084431032E-14", "-9.305441641182118E-14", "2.214352431348297E-10", "-1.007729013123672E-9", "1.152559125965979E-9", "3.292614416574721E-12", "-4.444572544851117E-20"], ["-3.95532223030862E-14", "5.212919683307374E-14", "1.80771928198285E-11", "6.219660363983506E-12", "3.292614416574721E-12", "1.000934912586993E-11", "-1.996646285928899E-20"], ["3.945650983471889E-22", "-5.14450132282076E-22", "-2.23670615170961E-19", "-6.547892270473776E-20", "-4.444572544851117E-20", "-1.996646285928899E-20", "2.479690748587718E-28"]], "labels": ["e", "q", "tp", "node", "peri", "i", "A2"]}, "elements": [{"label": "e", "units": null, "title": "eccentricity", "value": ".2900126126728391", "sigma": "3.3923E-8", "name": "e"}, {"name": "a", "sigma": "1.0002E-8", "units": "au", "value": "1.442050640842495", "title": "semi-major axis", "label": "a"}, {"sigma": "4.3977E-8", "name": "q", "value": "1.023837766885221", "title": "perihelion distance", "units": "au", "label": "q"}, {"label": "i", "sigma": "3.1635E-6", "name": "i", "units": "deg", "title": "inclination; angle with respect to x-y ecliptic plane", "value": "5.814869691444162"}, {"units": "deg", "title": "longitude of the ascending node", "value": "333.5344400066933", "sigma": "3.1817E-5", "name": "om", "label": "node"}, {"units": "deg", "title": "argument of perihelion", "value": "162.8294179083547", "sigma": "3.3957E-5", "name": "w", "label": "peri"}, {"title": "mean anomaly", "value": "186.1811869966026", "units": "deg", "name": "ma", "sigma": "7.8292E-6", "label": "M"}, {"units": "TDB", "value": "2461505.896090903122", "title": "time of perihelion passage", "sigma": "1.5768E-5", "name": "tp", "label": "tp"}, {"name": "per", "sigma": "6.5808E-6", "value": "632.5126194652754", "title": "sidereal orbital period", "units": "d", "label": "period"}, {"label": "n", "sigma": "5.9217E-9", "name": "n", "value": ".5691586047790526", "title": "mean motion", "units": "deg/d"}, {"label": "Q", "sigma": "1.2903E-8", "name": "ad", "title": "aphelion distance", "value": "1.860263514799769", "units": "au"}], "epoch": "2461200.5"}